STARLINK-36068          
1 66845U 25280AA  25356.58335648  .00027055  00000+0  44132-3 0  9994
2 66845  70.0006 171.3935 0003254 269.6812  67.9431 15.52498409  4473
STARLINK-36055          
1 66846U 25280AB  25356.58335648  .00039492  00000+0  64211-3 0  9993
2 66846  70.0004 171.3978 0003329 267.7391  66.0612 15.52490890  4470
STARLINK-36061          
1 66847U 25280AC  25356.58335648  .00028292  00000+0  46166-3 0  9999
2 66847  70.0005 171.3960 0003203 267.0769  68.6750 15.52477456  4436
STARLINK-36091          
1 66848U 25281A   25356.58335648 -.01950534  00000+0 -21194-1 0  9999
2 66848  43.0003  62.3332 0001340 286.5582  89.2834 15.65783189  2972
STARLINK-36102          
1 66849U 25281B   25356.58335648 -.01951639  00000+0 -21207-1 0  9992
2 66849  43.0005  62.3279 0001392 286.7331  91.0261 15.65783343  2973
STARLINK-36105          
1 66850U 25281C   25356.58335648 -.01959786  00000+0 -21305-1 0  9994
2 66850  43.0006  62.3232 0001377 285.5961  94.0829 15.65786664  2976
STARLINK-36094          
1 66851U 25281D   25356.58335648 -.01954251  00000+0 -21239-1 0  9993
2 66851  43.0005  62.3182 0001386 284.0679  97.5280 15.65783750  2972
STARLINK-35992          
1 66852U 25281E   25356.58335648 -.01961678  00000+0 -21326-1 0  9992
2 66852  43.0009  62.3139 0001431 285.0706  98.4418 15.65788611  2976
STARLINK-35986          
1 66853U 25281F   25356.58335648 -.01964878  00000+0 -21363-1 0  9999
2 66853  43.0008  62.3091 0001392 285.5584  99.8688 15.65791689  2971
STARLINK-36087          
1 66854U 25281G   25356.58335648 -.01959034  00000+0 -21294-1 0  9991
2 66854  43.0003  62.3036 0001347 286.2966 101.0471 15.65788541  2977
STARLINK-36090          
1 66855U 25281H   25356.58335648 -.01959488  00000+0 -21300-1 0  9993
2 66855  43.0005  62.2992 0001389 285.6333 103.6291 15.65787997  2856
STARLINK-36072          
1 66856U 25281J   25356.58335648 -.01956023  00000+0 -21259-1 0  9999
2 66856  43.0008  62.2941 0001276 288.4630 102.7137 15.65787003  2970
