CCSDS_OMM_VERS = 2.0
CREATION_DATE  = 
ORIGINATOR     = 

OBJECT_NAME    = STARLINK-36068
OBJECT_ID      = 2025-280AA
CENTER_NAME    = EARTH
REF_FRAME      = TEME
TIME_SYSTEM    = UTC
MEAN_ELEMENT_THEORY = SGP/SGP4

EPOCH          = 2025-12-22T14:00:01.999872
MEAN_MOTION    = 15.52498409
ECCENTRICITY   = .00032545
INCLINATION    = 70.0006
RA_OF_ASC_NODE = 171.3935
ARG_OF_PERICENTER = 269.6812
MEAN_ANOMALY   = 67.9431

EPHEMERIS_TYPE = 0
CLASSIFICATION_TYPE = U
NORAD_CAT_ID   = 66845
ELEMENT_SET_NO = 999
REV_AT_EPOCH   = 447
BSTAR          = .44131759E-3
MEAN_MOTION_DOT = .27055E-3
MEAN_MOTION_DDOT = 0

CCSDS_OMM_VERS = 2.0
CREATION_DATE  = 
ORIGINATOR     = 

OBJECT_NAME    = STARLINK-36055
OBJECT_ID      = 2025-280AB
CENTER_NAME    = EARTH
REF_FRAME      = TEME
TIME_SYSTEM    = UTC
MEAN_ELEMENT_THEORY = SGP/SGP4

EPOCH          = 2025-12-22T14:00:01.999872
MEAN_MOTION    = 15.52490890
ECCENTRICITY   = .00033293
INCLINATION    = 70.0004
RA_OF_ASC_NODE = 171.3978
ARG_OF_PERICENTER = 267.7391
MEAN_ANOMALY   = 66.0612

EPHEMERIS_TYPE = 0
CLASSIFICATION_TYPE = U
NORAD_CAT_ID   = 66846
ELEMENT_SET_NO = 999
REV_AT_EPOCH   = 447
BSTAR          = .64210959E-3
MEAN_MOTION_DOT = .39492E-3
MEAN_MOTION_DDOT = 0

CCSDS_OMM_VERS = 2.0
CREATION_DATE  = 
ORIGINATOR     = 

OBJECT_NAME    = STARLINK-36061
OBJECT_ID      = 2025-280AC
CENTER_NAME    = EARTH
REF_FRAME      = TEME
TIME_SYSTEM    = UTC
MEAN_ELEMENT_THEORY = SGP/SGP4

EPOCH          = 2025-12-22T14:00:01.999872
MEAN_MOTION    = 15.52477456
ECCENTRICITY   = .00032031
INCLINATION    = 70.0005
RA_OF_ASC_NODE = 171.3960
ARG_OF_PERICENTER = 267.0769
MEAN_ANOMALY   = 68.6750

EPHEMERIS_TYPE = 0
CLASSIFICATION_TYPE = U
NORAD_CAT_ID   = 66847
ELEMENT_SET_NO = 999
REV_AT_EPOCH   = 443
BSTAR          = .46165831E-3
MEAN_MOTION_DOT = .28292E-3
MEAN_MOTION_DDOT = 0

CCSDS_OMM_VERS = 2.0
CREATION_DATE  = 
ORIGINATOR     = 

OBJECT_NAME    = STARLINK-36091
OBJECT_ID      = 2025-281A
CENTER_NAME    = EARTH
REF_FRAME      = TEME
TIME_SYSTEM    = UTC
MEAN_ELEMENT_THEORY = SGP/SGP4

EPOCH          = 2025-12-22T14:00:01.999872
MEAN_MOTION    = 15.65783189
ECCENTRICITY   = .00013409
INCLINATION    = 43.0003
RA_OF_ASC_NODE = 62.3332
ARG_OF_PERICENTER = 286.5582
MEAN_ANOMALY   = 89.2834

EPHEMERIS_TYPE = 0
CLASSIFICATION_TYPE = U
NORAD_CAT_ID   = 66848
ELEMENT_SET_NO = 999
REV_AT_EPOCH   = 297
BSTAR          = -.21194052E-1
MEAN_MOTION_DOT = -.1950534E-1
MEAN_MOTION_DDOT = 0

CCSDS_OMM_VERS = 2.0
CREATION_DATE  = 
ORIGINATOR     = 

OBJECT_NAME    = STARLINK-36102
OBJECT_ID      = 2025-281B
CENTER_NAME    = EARTH
REF_FRAME      = TEME
TIME_SYSTEM    = UTC
MEAN_ELEMENT_THEORY = SGP/SGP4

EPOCH          = 2025-12-22T14:00:01.999872
MEAN_MOTION    = 15.65783343
ECCENTRICITY   = .0001392
INCLINATION    = 43.0005
RA_OF_ASC_NODE = 62.3279
ARG_OF_PERICENTER = 286.7331
MEAN_ANOMALY   = 91.0261

EPHEMERIS_TYPE = 0
CLASSIFICATION_TYPE = U
NORAD_CAT_ID   = 66849
ELEMENT_SET_NO = 999
REV_AT_EPOCH   = 297
BSTAR          = -.21207071E-1
MEAN_MOTION_DOT = -.1951639E-1
MEAN_MOTION_DDOT = 0

CCSDS_OMM_VERS = 2.0
CREATION_DATE  = 
ORIGINATOR     = 

OBJECT_NAME    = STARLINK-36105
OBJECT_ID      = 2025-281C
CENTER_NAME    = EARTH
REF_FRAME      = TEME
TIME_SYSTEM    = UTC
MEAN_ELEMENT_THEORY = SGP/SGP4

EPOCH          = 2025-12-22T14:00:01.999872
MEAN_MOTION    = 15.65786664
ECCENTRICITY   = .00013776
INCLINATION    = 43.0006
RA_OF_ASC_NODE = 62.3232
ARG_OF_PERICENTER = 285.5961
MEAN_ANOMALY   = 94.0829

EPHEMERIS_TYPE = 0
CLASSIFICATION_TYPE = U
NORAD_CAT_ID   = 66850
ELEMENT_SET_NO = 999
REV_AT_EPOCH   = 297
BSTAR          = -.2130479E-1
MEAN_MOTION_DOT = -.1959786E-1
MEAN_MOTION_DDOT = 0

CCSDS_OMM_VERS = 2.0
CREATION_DATE  = 
ORIGINATOR     = 

OBJECT_NAME    = STARLINK-36094
OBJECT_ID      = 2025-281D
CENTER_NAME    = EARTH
REF_FRAME      = TEME
TIME_SYSTEM    = UTC
MEAN_ELEMENT_THEORY = SGP/SGP4

EPOCH          = 2025-12-22T14:00:01.999872
MEAN_MOTION    = 15.65783750
ECCENTRICITY   = .00013862
INCLINATION    = 43.0005
RA_OF_ASC_NODE = 62.3182
ARG_OF_PERICENTER = 284.0679
MEAN_ANOMALY   = 97.5280

EPHEMERIS_TYPE = 0
CLASSIFICATION_TYPE = U
NORAD_CAT_ID   = 66851
ELEMENT_SET_NO = 999
REV_AT_EPOCH   = 297
BSTAR          = -.21238964E-1
MEAN_MOTION_DOT = -.1954251E-1
MEAN_MOTION_DDOT = 0

CCSDS_OMM_VERS = 2.0
CREATION_DATE  = 
ORIGINATOR     = 

OBJECT_NAME    = STARLINK-35992
OBJECT_ID      = 2025-281E
CENTER_NAME    = EARTH
REF_FRAME      = TEME
TIME_SYSTEM    = UTC
MEAN_ELEMENT_THEORY = SGP/SGP4

EPOCH          = 2025-12-22T14:00:01.999872
MEAN_MOTION    = 15.65788611
ECCENTRICITY   = .00014311
INCLINATION    = 43.0009
RA_OF_ASC_NODE = 62.3139
ARG_OF_PERICENTER = 285.0706
MEAN_ANOMALY   = 98.4418

EPHEMERIS_TYPE = 0
CLASSIFICATION_TYPE = U
NORAD_CAT_ID   = 66852
ELEMENT_SET_NO = 999
REV_AT_EPOCH   = 297
BSTAR          = -.21325959E-1
MEAN_MOTION_DOT = -.1961678E-1
MEAN_MOTION_DDOT = 0

CCSDS_OMM_VERS = 2.0
CREATION_DATE  = 
ORIGINATOR     = 

OBJECT_NAME    = STARLINK-35986
OBJECT_ID      = 2025-281F
CENTER_NAME    = EARTH
REF_FRAME      = TEME
TIME_SYSTEM    = UTC
MEAN_ELEMENT_THEORY = SGP/SGP4

EPOCH          = 2025-12-22T14:00:01.999872
MEAN_MOTION    = 15.65791689
ECCENTRICITY   = .00013926
INCLINATION    = 43.0008
RA_OF_ASC_NODE = 62.3091
ARG_OF_PERICENTER = 285.5584
MEAN_ANOMALY   = 99.8688

EPHEMERIS_TYPE = 0
CLASSIFICATION_TYPE = U
NORAD_CAT_ID   = 66853
ELEMENT_SET_NO = 999
REV_AT_EPOCH   = 297
BSTAR          = -.21363134E-1
MEAN_MOTION_DOT = -.1964878E-1
MEAN_MOTION_DDOT = 0

CCSDS_OMM_VERS = 2.0
CREATION_DATE  = 
ORIGINATOR     = 

OBJECT_NAME    = STARLINK-36087
OBJECT_ID      = 2025-281G
CENTER_NAME    = EARTH
REF_FRAME      = TEME
TIME_SYSTEM    = UTC
MEAN_ELEMENT_THEORY = SGP/SGP4

EPOCH          = 2025-12-22T14:00:01.999872
MEAN_MOTION    = 15.65788541
ECCENTRICITY   = .00013478
INCLINATION    = 43.0003
RA_OF_ASC_NODE = 62.3036
ARG_OF_PERICENTER = 286.2966
MEAN_ANOMALY   = 101.0471

EPHEMERIS_TYPE = 0
CLASSIFICATION_TYPE = U
NORAD_CAT_ID   = 66854
ELEMENT_SET_NO = 999
REV_AT_EPOCH   = 297
BSTAR          = -.21294156E-1
MEAN_MOTION_DOT = -.1959034E-1
MEAN_MOTION_DDOT = 0

CCSDS_OMM_VERS = 2.0
CREATION_DATE  = 
ORIGINATOR     = 

OBJECT_NAME    = STARLINK-36090
OBJECT_ID      = 2025-281H
CENTER_NAME    = EARTH
REF_FRAME      = TEME
TIME_SYSTEM    = UTC
MEAN_ELEMENT_THEORY = SGP/SGP4

EPOCH          = 2025-12-22T14:00:01.999872
MEAN_MOTION    = 15.65787997
ECCENTRICITY   = .00013897
INCLINATION    = 43.0005
RA_OF_ASC_NODE = 62.2992
ARG_OF_PERICENTER = 285.6333
MEAN_ANOMALY   = 103.6291

EPHEMERIS_TYPE = 0
CLASSIFICATION_TYPE = U
NORAD_CAT_ID   = 66855
ELEMENT_SET_NO = 999
REV_AT_EPOCH   = 285
BSTAR          = -.21299841E-1
MEAN_MOTION_DOT = -.1959488E-1
MEAN_MOTION_DDOT = 0

CCSDS_OMM_VERS = 2.0
CREATION_DATE  = 
ORIGINATOR     = 

OBJECT_NAME    = STARLINK-36072
OBJECT_ID      = 2025-281J
CENTER_NAME    = EARTH
REF_FRAME      = TEME
TIME_SYSTEM    = UTC
MEAN_ELEMENT_THEORY = SGP/SGP4

EPOCH          = 2025-12-22T14:00:01.999872
MEAN_MOTION    = 15.65787003
ECCENTRICITY   = .00012763
INCLINATION    = 43.0008
RA_OF_ASC_NODE = 62.2941
ARG_OF_PERICENTER = 288.4630
MEAN_ANOMALY   = 102.7137

EPHEMERIS_TYPE = 0
CLASSIFICATION_TYPE = U
NORAD_CAT_ID   = 66856
ELEMENT_SET_NO = 999
REV_AT_EPOCH   = 297
BSTAR          = -.21259015E-1
MEAN_MOTION_DOT = -.1956023E-1
MEAN_MOTION_DDOT = 0

